STARLINK-3525           
1 51733U 22016V   22069.91668981  .00058984  00000+0  42192-3 0  9991
2 51733  53.2178  53.8533 0001259  71.3343 297.7354 15.73189773  3418
STARLINK-3450           
1 51734U 22016W   22069.91668981  .00089327  00000+0  63453-3 0  9990
2 51734  53.2183  53.8481 0000983  65.1670 307.0326 15.73185354  3419
STARLINK-3517           
1 51735U 22016X   22069.91668981  .00061588  00000+0  43978-3 0  9990
2 51735  53.2180  53.8500 0001003  85.4609 285.4794 15.73213285  3413
STARLINK-3447           
1 51736U 22016Y   22069.91668981  .00087209  00000+0  61990-3 0  9993
2 51736  53.2183  53.8458 0000987  65.0191 308.4031 15.73179484  3411
STARLINK-3509           
1 51737U 22016Z   22069.91668981  .00003701  00000+0  30713-4 0  9999
2 51737  53.2180  53.8486 0000948  80.3728 291.1825 15.73243845  3415
STARLINK-3515           
1 51738U 22016AA  22069.91668981 -.00016853  00000+0 -11572-3 0  9995
2 51738  53.2185  53.8433 0000982  72.6298 302.1700 15.73236838  3416
STARLINK-3516           
1 51739U 22016AB  22069.91668981  .00060808  00000+0  43431-3 0  9992
2 51739  53.2181  53.8461 0001051  65.9682 307.0144 15.73212969  3419
STARLINK-3500           
1 51740U 22016AC  22069.91668981  .00053767  00000+0  38502-3 0  9993
2 51740  53.2184  53.8394 0001007  77.0180 299.6852 15.73202802  3425
STARLINK-3520           
1 51741U 22016AD  22069.91668981  .00052181  00000+0  37379-3 0  9994
2 51741  53.2181  53.8437 0000925  76.7641 297.3774 15.73207232  3416
STARLINK-3521           
1 51742U 22016AE  22069.91668981  .00002676  00000+0  23448-4 0  9992
2 51742  53.2185  53.8383 0001034  72.2191 305.1493 15.73227685  3425
STARLINK-3512           
1 51743U 22016AF  22069.91668981 -.00019656  00000+0 -13571-3 0  9996
2 51743  53.2181  53.8413 0001132  86.9616 288.4674 15.73243162  3410
STARLINK-3452           
1 51744U 22016AG  22069.91668981  .00024070  00000+0  17527-3 0  9996
2 51744  53.2185  53.8359 0001160  91.8518 286.7469 15.73220401  3426
STARLINK-3449           
1 51745U 22016AH  22069.91668981  .00055895  00000+0  40007-3 0  9995
2 51745  53.2182  53.8404 0000888  68.6845 307.3581 15.73197720  3417
STARLINK-3502           
1 51746U 22016AJ  22069.91668981  .00089422  00000+0  63537-3 0  9992
2 51746  53.2185  53.8335 0001019  55.0530 324.8111 15.73178927  3424
STARLINK-3446           
1 51747U 22016AK  22069.91668981  .00091626  00000+0  65084-3 0  9991
2 51747  53.2183  53.8366 0000914  84.9053 293.0580 15.73175794  3427
STARLINK-3501           
1 51748U 22016AL  22069.91668981  .00035983  00000+0  25944-3 0  9997
2 51748  53.2185  53.8310 0001055  56.6974 324.4259 15.73223595  3429
STARLINK-3451           
1 51749U 22016AM  22069.91668981 -.00018958  00000+0 -13074-3 0  9994
2 51749  53.2182  53.8338 0001277  57.5879 321.6579 15.73239590  3423
STARLINK-3505           
1 51750U 22016AN  22069.91668981 -.00005615  00000+0 -35555-4 0  9991
2 51750  53.2186  53.8287 0000871  74.3100 308.1035 15.73243475  3429
STARLINK-3506           
1 51751U 22016AP  22069.91668981 -.00011547  00000+0 -77842-4 0  9998
2 51751  53.2183  53.8314 0001391  72.5955 307.9127 15.73235706  3421
STARLINK-3511           
1 51752U 22016AQ  22069.91668981  .00091554  00000+0  65005-3 0  9990
2 51752  53.2188  53.8278 0000965  58.3264 324.7263 15.73186072  3426
STARLINK-3507           
1 51753U 22016AR  22069.91668981  .00091448  00000+0  64956-3 0  9997
2 51753  53.2184  53.8291 0001456  67.9182 313.8910 15.73176740  3428
STARLINK-3457           
1 51754U 22016AS  22069.91668981  .00005913  00000+0  46468-4 0  9999
2 51754  53.2186  53.8246 0000985  60.4688 323.9180 15.73223611  3427
STARLINK-3460           
1 51755U 22016AT  22069.91668981  .00092513  00000+0  65666-3 0  9992
2 51755  53.2184  53.8254 0001272  82.1596 301.5442 15.73188662  3423
STARLINK-3513           
1 51756U 22016AU  22069.91668981 -.00009921  00000+0 -66203-4 0  9995
2 51756  53.2188  53.8241 0001307  65.5024 319.4698 15.73251195  3427
STARLINK-3459           
1 51757U 22016AV  22069.91668981  .00053733  00000+0  38476-3 0  9994
2 51757  53.2185  53.8219 0001024  67.0467 318.5626 15.73203865  3426
STARLINK-3458           
1 51758U 22016AW  22069.91668981  .00090910  00000+0  64552-3 0  9997
2 51758  53.2188  53.8213 0001088  48.5174 337.7394 15.73187445  3423
STARLINK-3456           
1 51759U 22016AX  22069.91668981  .00061051  00000+0  43621-3 0  9996
2 51759  53.2184  53.8189 0000978  55.3201 331.6057 15.73202599  3423
FALCON 9 DEB            
1 51760U 22016AY  22069.91282395  .00132729  00000+0  60626-3 0  9994
2 51760  53.2308  53.1373 0005776 324.8737  35.1906 15.82869466  2891
FALCON 9 DEB            
1 51761U 22016AZ  22069.84479388  .00152290  00000+0  67284-3 0  9999
2 51761  53.2283  53.4174 0004583 295.7151  64.3400 15.83522249  2885
FALCON 9 DEB            
1 51762U 22016BA  22069.89668854  .00150985  00000+0  63255-3 0  9996
2 51762  53.2251  53.0179 0009236 300.9787  59.0330 15.84597592  2894
FALCON 9 DEB            
1 51763U 22016BB  22069.83087460  .00138107  00000+0  57690-3 0  9997
2 51763  53.2237  53.3130 0008870 282.3931  77.6101 15.84703746  2887
STARLINK-3622           
1 51768U 22017A   22069.91668981  .00081760  00000+0  58172-3 0  9993
2 51768  53.2198  77.9219 0001316  41.4640 266.1506 15.73183408  2594
STARLINK-3621           
1 51769U 22017B   22069.91668981  .00083437  00000+0  59346-3 0  9991
2 51769  53.2195  77.9187 0001299  50.6890 258.2126 15.73182790  2587
STARLINK-3612           
1 51770U 22017C   22069.91668981  .00072577  00000+0  51748-3 0  9994
2 51770  53.2197  77.9209 0001242  58.4050 249.8740 15.73181815  2583
STARLINK-3614           
1 51771U 22017D   22069.91668981  .00053729  00000+0  38478-3 0  9998
2 51771  53.2196  77.9177 0001400  48.6342 260.8987 15.73200582  2587
STARLINK-3623           
1 51772U 22017E   22069.91668981  .00072943  00000+0  52003-3 0  9998
2 51772  53.2196  77.9143 0001432  54.1002 257.3805 15.73182369  2583
STARLINK-3624           
1 51773U 22017F   22069.91668981  .00032777  00000+0  23712-3 0  9995
2 51773  53.2197  77.9164 0001159  51.8659 258.3275 15.73192633  2583
STARLINK-3629           
1 51774U 22017G   22069.91668981  .00069621  00000+0  49635-3 0  9996
2 51774  53.2195  77.9120 0001362  61.6115 251.0741 15.73200925  2599
STARLINK-3620           
1 51775U 22017H   22069.91668981  .00024234  00000+0  17646-3 0  9995
2 51775  53.2197  77.9151 0001125  59.2013 251.5911 15.73216938  2598
STARLINK-3608           
1 51776U 22017J   22069.91668981  .00055157  00000+0  39485-3 0  9999
2 51776  53.2191  77.9108 0001519  40.1793 273.1492 15.73198952  2595
STARLINK-3625           
1 51777U 22017K   22069.91668981  .00008205  00000+0  62774-4 0  9990
2 51777  53.2197  77.9126 0001344  57.8010 254.2637 15.73218767  2593
STARLINK-3615           
1 51778U 22017L   22069.91668981  .00085579  00000+0  60868-3 0  9991
2 51778  53.2222  77.5590 0001226  54.0542  71.6203 15.73173146  2593
STARLINK-3611           
1 51779U 22017M   22069.91668981  .00066204  00000+0  47276-3 0  9994
2 51779  53.2196  77.9089 0001234  48.0726 265.9455 15.73182795  2594
STARLINK-3617           
1 51780U 22017N   22069.91668981  .00084014  00000+0  59750-3 0  9995
2 51780  53.2183  77.9043 0001088  56.3763 260.1773 15.73182485  2598
STARLINK-3580           
1 51781U 22017P   22069.91668981 -.00004368  00000+0 -26680-4 0  9999
2 51781  53.2192  77.9079 0001224  58.5402 256.0560 15.73232667  2590
STARLINK-3616           
1 51782U 22017Q   22069.91668981  .00041348  00000+0  29774-3 0  9993
2 51782  53.2183  77.9005 0001107  55.5455 262.9255 15.73186759  2581
STARLINK-3628           
1 51783U 22017R   22069.91668981 -.00012509  00000+0 -84726-4 0  9992
2 51783  53.2196  77.9054 0001288  61.5232 254.3914 15.73231474  2593
STARLINK-3632           
1 51784U 22017S   22069.91668981 -.00015042  00000+0 -10290-3 0  9992
2 51784  53.2183  77.8993 0001248  47.1570 271.9611 15.73210368  2589
STARLINK-3646           
1 51785U 22017T   22069.91668981 -.00007394  00000+0 -48262-4 0  9995
2 51785  53.2196  77.9026 0001265  47.2598 269.9432 15.73223683  2584
STARLINK-3638           
1 51786U 22017U   22069.91668981  .00038958  00000+0  28116-3 0  9999
2 51786  53.2185  77.8969 0001000  47.2338 273.1769 15.73162445  2585
STARLINK-3619           
1 51787U 22017V   22069.91668981  .00035315  00000+0  25499-3 0  9995
2 51787  53.2179  77.9013 0001516  47.6010 270.2642 15.73198625  2580
STARLINK-3641           
1 51788U 22017W   22069.91668981 -.00000003  00000+0  43941-5 0  9997
2 51788  53.2185  77.8929 0001127  53.2705 269.0465 15.73184561  2599
STARLINK-3639           
1 51789U 22017X   22069.91668981  .00022510  00000+0  16424-3 0  9998
2 51789  53.2182  77.8977 0001108  52.9560 266.7929 15.73218820  2588
STARLINK-3631           
1 51790U 22017Y   22069.91668981 -.00014776  00000+0 -10086-3 0  9995
2 51790  53.2184  77.8915 0001142  61.5276 261.3540 15.73243426  2582
STARLINK-3602           
1 51791U 22017Z   22069.91668981 -.00015729  00000+0 -10770-3 0  9995
2 51791  53.2180  77.8950 0001279  51.7101 269.3632 15.73234004  2589
STARLINK-3626           
1 51792U 22017AA  22069.91668981 -.00011085  00000+0 -74567-4 0  9992
2 51792  53.2189  77.8891 0001350  54.0366 270.2001 15.73229616  2597
STARLINK-3633           
1 51793U 22017AB  22069.91668981 -.00001217  00000+0 -42540-5 0  9996
2 51793  53.2180  77.8937 0001271  56.2338 265.4651 15.73218699  2580
STARLINK-3573           
1 51794U 22017AC  22069.91668981  .00053674  00000+0  38436-3 0  9996
2 51794  53.2185  77.8864 0001319  70.6834 254.8170 15.73202962  2594
STARLINK-3586           
1 51795U 22017AD  22069.91668981 -.00027421  00000+0 -19132-3 0  9992
2 51795  53.2180  77.8874 0001154  60.7150 264.1593 15.73234018  2588
